[{"OBJECT_NAME":"STARLINK-32953","OBJECT_ID":"2025-075P","EPOCH":"2026-03-09T22:33:33.185088","MEAN_MOTION":15.27599288,"ECCENTRICITY":0.00010292,"INCLINATION":43.0028,"RA_OF_ASC_NODE":269.3945,"ARG_OF_PERICENTER":259.1113,"MEAN_ANOMALY":100.9623,"EPHEMERIS_TYPE":0,"CLASSIFICATION_TYPE":"U","NORAD_CAT_ID":63561,"ELEMENT_SET_NO":999,"REV_AT_EPOCH":5196,"BSTAR":0.00099784921,"MEAN_MOTION_DOT":0.00027314,"MEAN_MOTION_DDOT":0},{"OBJECT_NAME":"OBJECT E","OBJECT_ID":"2026-023E","EPOCH":"2026-03-09T23:33:47.695392","MEAN_MOTION":15.23129165,"ECCENTRICITY":0.00204824,"INCLINATION":96.6311,"RA_OF_ASC_NODE":141.8855,"ARG_OF_PERICENTER":125.9066,"MEAN_ANOMALY":234.4078,"EPHEMERIS_TYPE":0,"CLASSIFICATION_TYPE":"U","NORAD_CAT_ID":67678,"ELEMENT_SET_NO":999,"REV_AT_EPOCH":489,"BSTAR":0.00066049733,"MEAN_MOTION_DOT":0.00015639,"MEAN_MOTION_DDOT":0}]
